You are in the middle of a laundry room. There is a dryer on the east side. There is a sink on the west side. There is a washing machine on the south side. We define the following directions. The north direction is (0, -1). The south direction is (0, 1). The east direction is (-1, 0). The west direction is (1, 0). What's the layout of the room in the following format? You can estimate the size of the objects.\n```json\n{"name": "??", "width": 500, "height": 500, "directions": {"north": "??", "south": "??", "east": "??", "west": "??"}, "objects": [{"name": "??", "x": "??", "y": "??"}]}\n```	Here is the layout of the laundry room in the requested format:\n```json\n{"name": "laundry room", "width": 500, "height": 500, "directions": {"north": (0, -1), "south": (0, 1), "east": (-1, 0), "west": (1, 0)}, "objects": [{"name": "dryer", "x": 200, "y": 200}, {"name": "sink", "x": 300, "y": 200}, {"name": "washing machine", "x": 200, "y": 300}]} \n```	False	claude-v1.3	None	None	None	0	1
You are in the middle of a living room. There is a TV on the south side. There is a bookcase on the east side. There is a mirror on the north side. We define the following directions. The north direction is (0, -1). The south direction is (0, 1). The east direction is (-1, 0). The west direction is (1, 0). What's the layout of the room in the following format? You can estimate the size of the objects.\n```json\n{"name": "??", "width": 500, "height": 500, "directions": {"north": "??", "south": "??", "east": "??", "west": "??"}, "objects": [{"name": "??", "x": "??", "y": "??"}]}\n```	Here is the layout of the room in the requested format:\n```json\n{"name": "living room", "width": 500, "height": 500, "directions": {"north": (0, -1), "south": (0, 1), "east": (-1, 0), "west": (1, 0)}, "objects": [{"name": "TV", "x": 250, "y": 250}, {"name": "bookcase", "x": 0, "y": 250}, {"name": "mirror", "x": 250, "y": 0}]}\n```	False	claude-v1.3	None	None	None	0	1
You are in the middle of a kitchen. There is a microwave on the south side. There is a fridge on the west side. There is a coffee machine on the north side. We define the following directions. The north direction is (0, -1). The south direction is (0, 1). The east direction is (-1, 0). The west direction is (1, 0). What's the layout of the room in the following format? You can estimate the size of the objects.\n```json\n{"name": "??", "width": 500, "height": 500, "directions": {"north": "??", "south": "??", "east": "??", "west": "??"}, "objects": [{"name": "??", "x": "??", "y": "??"}]}\n```	Here is the layout of the room in the requested format:\n```json\n{"name": "kitchen", "width": 500, "height": 500, "directions": {"north": (0, -1), "south": (0, 1), "east": (-1, 0), "west": (1, 0)}, "objects": [{"name": "microwave", "x": 250, "y": 400}, {"name": "fridge", "x": 400, "y": 250}, {"name": "coffee machine", "x": 100, "y": 100}]}\n```	False	claude-v1.3	None	None	None	0	1
You are in the middle of a study room. There is a desk on the north side. There is a computer on the south side. There is a lamp on the east side. We define the following directions. The north direction is (0, -1). The south direction is (0, 1). The east direction is (-1, 0). The west direction is (1, 0). What's the layout of the room in the following format? You can estimate the size of the objects.\n```json\n{"name": "??", "width": 500, "height": 500, "directions": {"north": "??", "south": "??", "east": "??", "west": "??"}, "objects": [{"name": "??", "x": "??", "y": "??"}]}\n```	Here is the layout of the room in the requested format:\n```json\n{"name": "study room", "width": 500, "height": 500, "directions": {"north": (0, -1), "south": (0, 1), "east": (-1, 0), "west": (1, 0)}, "objects": [{"name": "desk", "x": 250, "y": 0}, {"name": "computer", "x": 250, "y": 500}, {"name": "lamp", "x": 0, "y": 250}]}\n```	False	claude-v1.3	None	None	None	0	1
You are in the middle of a kitchen. There is a chair on the west side. There is a dishwasher on the east side. There is a blender on the south side. We define the following directions. The north direction is (0, -1). The south direction is (0, 1). The east direction is (-1, 0). The west direction is (1, 0). What's the layout of the room in the following format? You can estimate the size of the objects.\n```json\n{"name": "??", "width": 500, "height": 500, "directions": {"north": "??", "south": "??", "east": "??", "west": "??"}, "objects": [{"name": "??", "x": "??", "y": "??"}]}\n```	Here is the layout of the room in the requested format:\n```json\n{"name": "kitchen", "width": 500, "height": 500, "directions": {"north": (0, -1), "south": (0, 1), "east": (-1, 0), "west": (1, 0)}, "objects": [{"name": "chair", "x": 200, "y": 0}, {"name": "dishwasher", "x": 0, "y": 200}, {"name": "blender", "x": 200, "y": 400}]}\n```	False	claude-v1.3	None	None	None	0	1
You are in the middle of a bedroom. There is a lamp on the west side. There is a bed on the east side. There is a wardrobe on the north side. We define the following directions. The north direction is (0, -1). The south direction is (0, 1). The east direction is (-1, 0). The west direction is (1, 0). What's the layout of the room in the following format? You can estimate the size of the objects.\n```json\n{"name": "??", "width": 500, "height": 500, "directions": {"north": "??", "south": "??", "east": "??", "west": "??"}, "objects": [{"name": "??", "x": "??", "y": "??"}]}\n```	Here is the layout of the room in the requested format:\n```json\n{"name": "Bedroom", "width": 500, "height": 500, "directions": {"north": (0, -1), "south": (0, 1), "east": (-1, 0), "west": (1, 0)}, "objects": [{"name": "Lamp", "x": 400, "y": 0}, {"name": "Bed", "x": 0, "y": 0}, {"name": "Wardrobe", "x": 0, "y": -200}]}\n```	False	claude-v1.3	None	None	None	0	1
You are in the middle of a dining room. There is a lamp on the east side. There is a sideboard on the west side. There is a table on the north side. We define the following directions. The north direction is (0, -1). The south direction is (0, 1). The east direction is (-1, 0). The west direction is (1, 0). What's the layout of the room in the following format? You can estimate the size of the objects.\n```json\n{"name": "??", "width": 500, "height": 500, "directions": {"north": "??", "south": "??", "east": "??", "west": "??"}, "objects": [{"name": "??", "x": "??", "y": "??"}]}\n```	Here is the layout of the room in the requested format:\n```json\n{"name": "dining room", "width": 500, "height": 500, "directions": {"north": (0, -1), "south": (0, 1), "east": (-1, 0), "west": (1, 0)}, "objects": [{"name": "lamp", "x": 100, "y": 200}, {"name": "sideboard", "x": 400, "y": 200}, {"name": "table", "x": 250, "y": 0}]}\n```	False	claude-v1.3	None	None	None	0	1
You are in the middle of a bathroom. There is a mirror on the south side. There is a toilet on the east side. There is a sink on the west side. We define the following directions. The north direction is (0, -1). The south direction is (0, 1). The east direction is (-1, 0). The west direction is (1, 0). What's the layout of the room in the following format? You can estimate the size of the objects.\n```json\n{"name": "??", "width": 500, "height": 500, "directions": {"north": "??", "south": "??", "east": "??", "west": "??"}, "objects": [{"name": "??", "x": "??", "y": "??"}]}\n```	Here is the layout of the room in the requested format:\n```json\n{"name": "bathroom", "width": 500, "height": 500, "directions": {"north": (0, -1), "south": (0, 1), "east": (-1, 0), "west": (1, 0)}, "objects": [{"name": "mirror", "x": 250, "y": 250}, {"name": "toilet", "x": 0, "y": 250}, {"name": "sink", "x": 500, "y": 250}]}\n```	False	claude-v1.3	None	None	None	0	1
You are in the middle of a bedroom. There is a wardrobe on the north side. There is a bookcase on the south side. There is a computer on the east side. We define the following directions. The north direction is (0, -1). The south direction is (0, 1). The east direction is (-1, 0). The west direction is (1, 0). What's the layout of the room in the following format? You can estimate the size of the objects.\n```json\n{"name": "??", "width": 500, "height": 500, "directions": {"north": "??", "south": "??", "east": "??", "west": "??"}, "objects": [{"name": "??", "x": "??", "y": "??"}]}\n```	Here is the layout of the room in the requested format:\n```json\n{"name": "Bedroom", "width": 500, "height": 500, "directions": {"north": (0, -1), "south": (0, 1), "east": (-1, 0), "west": (1, 0)}, "objects": [{"name": "Wardrobe", "x": 0, "y": 0}, {"name": "Bookcase", "x": 0, "y": 400}, {"name": "Computer", "x": 400, "y": 0}]}\n```	False	claude-v1.3	None	None	None	0	1
You are in the middle of a study room. There is a desk on the south side. There is a bookcase on the east side. There is a computer on the west side. We define the following directions. The north direction is (0, -1). The south direction is (0, 1). The east direction is (-1, 0). The west direction is (1, 0). What's the layout of the room in the following format? You can estimate the size of the objects.\n```json\n{"name": "??", "width": 500, "height": 500, "directions": {"north": "??", "south": "??", "east": "??", "west": "??"}, "objects": [{"name": "??", "x": "??", "y": "??"}]}\n```	Here is the layout of the room in the requested format:\n```json\n{"name": "study room", "width": 500, "height": 500, "directions": {"north": (0, -1), "south": (0, 1), "east": (-1, 0), "west": (1, 0)}, "objects": [{"name": "desk", "x": 250, "y": 400}, {"name": "bookcase", "x": 100, "y": 250}, {"name": "computer", "x": 400, "y": 250}]}\n```	False	claude-v1.3	None	None	None	0	1
You are in the middle of a living room. There is a sofa on the east side. There is a lamp on the west side. There is a bookcase on the north side. We define the following directions. The north direction is (0, -1). The south direction is (0, 1). The east direction is (-1, 0). The west direction is (1, 0). What's the layout of the room in the following format? You can estimate the size of the objects.\n```json\n{"name": "??", "width": 500, "height": 500, "directions": {"north": "??", "south": "??", "east": "??", "west": "??"}, "objects": [{"name": "??", "x": "??", "y": "??"}]}\n```	Here is the layout of the room in the requested format:\n```json\n{"name": "living room", "width": 500, "height": 500, "directions": {"north": (0, -1), "south": (0, 1), "east": (-1, 0), "west": (1, 0)}, "objects": [{"name": "sofa", "x": 100, "y": 200}, {"name": "lamp", "x": 400, "y": 200}, {"name": "bookcase", "x": 200, "y": 0}]}\n```	False	claude-v1.3	None	None	None	0	1
You are in the middle of a kitchen. There is a microwave on the north side. There is a dishwasher on the east side. There is a chair on the south side. We define the following directions. The north direction is (0, -1). The south direction is (0, 1). The east direction is (-1, 0). The west direction is (1, 0). What's the layout of the room in the following format? You can estimate the size of the objects.\n```json\n{"name": "??", "width": 500, "height": 500, "directions": {"north": "??", "south": "??", "east": "??", "west": "??"}, "objects": [{"name": "??", "x": "??", "y": "??"}]}\n```	Here is the layout of the room in the requested format:\n```json\n{"name": "kitchen", "width": 500, "height": 500, "directions": {"north": (0, -1), "south": (0, 1), "east": (-1, 0), "west": (1, 0)}, "objects": [{"name": "microwave", "x": 250, "y": 0}, {"name": "dishwasher", "x": 0, "y": 250}, {"name": "chair", "x": 250, "y": 500}]}\n```	False	claude-v1.3	None	None	None	0	1
You are in the middle of a living room. There is a sofa on the south side. There is a mirror on the north side. There is a coffee table on the east side. We define the following directions. The north direction is (0, -1). The south direction is (0, 1). The east direction is (-1, 0). The west direction is (1, 0). What's the layout of the room in the following format? You can estimate the size of the objects.\n```json\n{"name": "??", "width": 500, "height": 500, "directions": {"north": "??", "south": "??", "east": "??", "west": "??"}, "objects": [{"name": "??", "x": "??", "y": "??"}]}\n```	Here is the layout of the room in the requested format:\n```json\n{"name": "living room", "width": 500, "height": 500, "directions": {"north": (0, -1), "south": (0, 1), "east": (-1, 0), "west": (1, 0)}, "objects": [{"name": "sofa", "x": 250, "y": 250}, {"name": "mirror", "x": 250, "y": 0}, {"name": "coffee table", "x": 0, "y": 250}]}\n```	False	claude-v1.3	None	None	None	0	1
You are in the middle of a study room. There is a bookcase on the south side. There is a lamp on the north side. There is a computer on the west side. We define the following directions. The north direction is (0, -1). The south direction is (0, 1). The east direction is (-1, 0). The west direction is (1, 0). What's the layout of the room in the following format? You can estimate the size of the objects.\n```json\n{"name": "??", "width": 500, "height": 500, "directions": {"north": "??", "south": "??", "east": "??", "west": "??"}, "objects": [{"name": "??", "x": "??", "y": "??"}]}\n```	Here is the layout of the room in the requested format:\n```json\n{"name": "study room", "width": 500, "height": 500, "directions": {"north": (0, -1), "south": (0, 1), "east": (-1, 0), "west": (1, 0)}, "objects": [{"name": "bookcase", "x": 250, "y": 250}, {"name": "lamp", "x": 250, "y": 0}, {"name": "computer", "x": 0, "y": 250}]}\n```	False	claude-v1.3	None	None	None	0	1
You are in the middle of a dining room. There is a sideboard on the east side. There is a lamp on the north side. There is a chair on the south side. We define the following directions. The north direction is (0, -1). The south direction is (0, 1). The east direction is (-1, 0). The west direction is (1, 0). What's the layout of the room in the following format? You can estimate the size of the objects.\n```json\n{"name": "??", "width": 500, "height": 500, "directions": {"north": "??", "south": "??", "east": "??", "west": "??"}, "objects": [{"name": "??", "x": "??", "y": "??"}]}\n```	Here is the layout of the room in the requested format:\n```json\n{"name": "dining room", "width": 500, "height": 500, "directions": {"north": (0, -1), "south": (0, 1), "east": (-1, 0), "west": (1, 0)}, "objects": [{"name": "sideboard", "x": 0, "y": 250}, {"name": "lamp", "x": 250, "y": 0}, {"name": "chair", "x": 0, "y": 0}]}\n```	False	claude-v1.3	None	None	None	0	1
You are in the middle of a dining room. There is a table on the east side. There is a lamp on the north side. There is a sideboard on the west side. We define the following directions. The north direction is (0, -1). The south direction is (0, 1). The east direction is (-1, 0). The west direction is (1, 0). What's the layout of the room in the following format? You can estimate the size of the objects.\n```json\n{"name": "??", "width": 500, "height": 500, "directions": {"north": "??", "south": "??", "east": "??", "west": "??"}, "objects": [{"name": "??", "x": "??", "y": "??"}]}\n```	Here is the layout of the room in the requested format:\n```json\n{"name": "dining room", "width": 500, "height": 500, "directions": {"north": (0, -1), "south": (0, 1), "east": (-1, 0), "west": (1, 0)}, "objects": [{"name": "table", "x": 200, "y": 200}, {"name": "lamp", "x": 300, "y": 100}, {"name": "sideboard", "x": 400, "y": 200}]}\n```	False	claude-v1.3	None	None	None	0	1
You are in the middle of a bedroom. There is a chair on the east side. There is a wardrobe on the north side. There is a desk on the south side. We define the following directions. The north direction is (0, -1). The south direction is (0, 1). The east direction is (-1, 0). The west direction is (1, 0). What's the layout of the room in the following format? You can estimate the size of the objects.\n```json\n{"name": "??", "width": 500, "height": 500, "directions": {"north": "??", "south": "??", "east": "??", "west": "??"}, "objects": [{"name": "??", "x": "??", "y": "??"}]}\n```	Here is the layout of the room in the requested format:\n```json\n{"name": "Bedroom", "width": 500, "height": 500, "directions": {"north": (0, -1), "south": (0, 1), "east": (-1, 0), "west": (1, 0)}, "objects": [{"name": "Chair", "x": 200, "y": 200}, {"name": "Wardrobe", "x": 100, "y": 100}, {"name": "Desk", "x": 300, "y": 300}]} \n```	False	claude-v1.3	None	None	None	0	1
You are in the middle of a living room. There is a sofa on the south side. There is a mirror on the north side. There is a coffee table on the east side. We define the following directions. The north direction is (0, -1). The south direction is (0, 1). The east direction is (-1, 0). The west direction is (1, 0). What's the layout of the room in the following format? You can estimate the size of the objects.\n```json\n{"name": "??", "width": 500, "height": 500, "directions": {"north": "??", "south": "??", "east": "??", "west": "??"}, "objects": [{"name": "??", "x": "??", "y": "??"}]}\n```	Here is the layout of the room in the requested format:\n```json\n{"name": "living room", "width": 500, "height": 500, "directions": {"north": (0, -1), "south": (0, 1), "east": (-1, 0), "west": (1, 0)}, "objects": [{"name": "sofa", "x": 250, "y": 250}, {"name": "mirror", "x": 250, "y": 0}, {"name": "coffee table", "x": 0, "y": 250}]}\n```	False	claude-v1.3	None	None	None	0	1
You are in the middle of a bedroom. There is a wardrobe on the west side. There is a desk on the north side. There is a mirror on the south side. We define the following directions. The north direction is (0, -1). The south direction is (0, 1). The east direction is (-1, 0). The west direction is (1, 0). What's the layout of the room in the following format? You can estimate the size of the objects.\n```json\n{"name": "??", "width": 500, "height": 500, "directions": {"north": "??", "south": "??", "east": "??", "west": "??"}, "objects": [{"name": "??", "x": "??", "y": "??"}]}\n```	Here is the layout of the room in the requested format:\n```json\n{"name": "Bedroom", "width": 500, "height": 500, "directions": {"north": (0, -1), "south": (0, 1), "east": (-1, 0), "west": (1, 0)}, "objects": [{"name": "Wardrobe", "x": 400, "y": 250}, {"name": "Desk", "x": 250, "y": 400}, {"name": "Mirror", "x": 400, "y": 150}]}\n```	False	claude-v1.3	None	None	None	0	1
You are in the middle of a laundry room. There is a washing machine on the south side. There is a sink on the north side. There is a dryer on the east side. We define the following directions. The north direction is (0, -1). The south direction is (0, 1). The east direction is (-1, 0). The west direction is (1, 0). What's the layout of the room in the following format? You can estimate the size of the objects.\n```json\n{"name": "??", "width": 500, "height": 500, "directions": {"north": "??", "south": "??", "east": "??", "west": "??"}, "objects": [{"name": "??", "x": "??", "y": "??"}]}\n```	Here is the layout of the laundry room in the requested format:\n```json\n{"name": "laundry room", "width": 500, "height": 500, "directions": {"north": (0, -1), "south": (0, 1), "east": (-1, 0), "west": (1, 0)}, "objects": [{"name": "washing machine", "x": 250, "y": 250}, {"name": "sink", "x": 250, "y": 0}, {"name": "dryer", "x": 0, "y": 250}]}\n```	False	claude-v1.3	None	None	None	0	1
You are in the middle of a living room. There is a coffee table on the west side. There is a sofa on the east side. There is a lamp on the north side. We define the following directions. The north direction is (0, -1). The south direction is (0, 1). The east direction is (-1, 0). The west direction is (1, 0). What's the layout of the room in the following format? You can estimate the size of the objects.\n```json\n{"name": "??", "width": 500, "height": 500, "directions": {"north": "??", "south": "??", "east": "??", "west": "??"}, "objects": [{"name": "??", "x": "??", "y": "??"}]}\n```	Here is the layout of the room in the requested format:\n```json\n{"name": "living room", "width": 500, "height": 500, "directions": {"north": (0, -1), "south": (0, 1), "east": (-1, 0), "west": (1, 0)}, "objects": [{"name": "coffee table", "x": 250, "y": 0}, {"name": "sofa", "x": 0, "y": 250}, {"name": "lamp", "x": -250, "y": 0}]}\n```	False	claude-v1.3	None	None	None	0	1
You are in the middle of a laundry room. There is a dryer on the north side. There is a washing machine on the east side. There is a sink on the south side. We define the following directions. The north direction is (0, -1). The south direction is (0, 1). The east direction is (-1, 0). The west direction is (1, 0). What's the layout of the room in the following format? You can estimate the size of the objects.\n```json\n{"name": "??", "width": 500, "height": 500, "directions": {"north": "??", "south": "??", "east": "??", "west": "??"}, "objects": [{"name": "??", "x": "??", "y": "??"}]}\n```	Here is the layout of the laundry room in the requested format:\n```json\n{"name": "laundry room", "width": 500, "height": 500, "directions": {"north": (0, -1), "south": (0, 1), "east": (-1, 0), "west": (1, 0)}, "objects": [{"name": "dryer", "x": 250, "y": 0}, {"name": "washing machine", "x": 0, "y": 250}, {"name": "sink", "x": 250, "y": 500}]}\n```	False	claude-v1.3	None	None	None	0	1
You are in the middle of a kitchen. There is a toaster on the west side. There is a microwave on the north side. There is a sink on the east side. We define the following directions. The north direction is (0, -1). The south direction is (0, 1). The east direction is (-1, 0). The west direction is (1, 0). What's the layout of the room in the following format? You can estimate the size of the objects.\n```json\n{"name": "??", "width": 500, "height": 500, "directions": {"north": "??", "south": "??", "east": "??", "west": "??"}, "objects": [{"name": "??", "x": "??", "y": "??"}]}\n```	Here is the layout of the room in the requested format:\n```json\n{"name": "kitchen", "width": 500, "height": 500, "directions": {"north": (0, -1), "south": (0, 1), "east": (-1, 0), "west": (1, 0)}, "objects": [{"name": "toaster", "x": 400, "y": 250}, {"name": "microwave", "x": 250, "y": 0}, {"name": "sink", "x": 0, "y": 250}]}\n```	False	claude-v1.3	None	None	None	0	1
You are in the middle of a study room. There is a lamp on the east side. There is a chair on the west side. There is a computer on the south side. We define the following directions. The north direction is (0, -1). The south direction is (0, 1). The east direction is (-1, 0). The west direction is (1, 0). What's the layout of the room in the following format? You can estimate the size of the objects.\n```json\n{"name": "??", "width": 500, "height": 500, "directions": {"north": "??", "south": "??", "east": "??", "west": "??"}, "objects": [{"name": "??", "x": "??", "y": "??"}]}\n```	Here is the layout of the room in the requested format:\n```json\n{"name": "study room", "width": 500, "height": 500, "directions": {"north": (0, -1), "south": (0, 1), "east": (-1, 0), "west": (1, 0)}, "objects": [{"name": "lamp", "x": 100, "y": 200}, {"name": "chair", "x": 400, "y": 200}, {"name": "computer", "x": 250, "y": 400}]}\n```	False	claude-v1.3	None	None	None	0	1
You are in the middle of a laundry room. There is a sink on the north side. There is a washing machine on the east side. There is a dryer on the west side. We define the following directions. The north direction is (0, -1). The south direction is (0, 1). The east direction is (-1, 0). The west direction is (1, 0). What's the layout of the room in the following format? You can estimate the size of the objects.\n```json\n{"name": "??", "width": 500, "height": 500, "directions": {"north": "??", "south": "??", "east": "??", "west": "??"}, "objects": [{"name": "??", "x": "??", "y": "??"}]}\n```	Here is the layout of the laundry room in the requested format:\n```json\n{"name": "laundry room", "width": 500, "height": 500, "directions": {"north": (0, -1), "south": (0, 1), "east": (-1, 0), "west": (1, 0)}, "objects": [{"name": "sink", "x": 250, "y": 0}, {"name": "washing machine", "x": 0, "y": 250}, {"name": "dryer", "x": 500, "y": 250}]}\n```	False	claude-v1.3	None	None	None	0	1
You are in the middle of a laundry room. There is a washing machine on the north side. There is a dryer on the east side. There is a sink on the south side. We define the following directions. The north direction is (0, -1). The south direction is (0, 1). The east direction is (-1, 0). The west direction is (1, 0). What's the layout of the room in the following format? You can estimate the size of the objects.\n```json\n{"name": "??", "width": 500, "height": 500, "directions": {"north": "??", "south": "??", "east": "??", "west": "??"}, "objects": [{"name": "??", "x": "??", "y": "??"}]}\n```	Here is the layout of the laundry room in the requested format:\n```json\n{"name": "laundry room", "width": 500, "height": 500, "directions": {"north": (0, -1), "south": (0, 1), "east": (-1, 0), "west": (1, 0)}, "objects": [{"name": "washing machine", "x": 250, "y": 0}, {"name": "dryer", "x": 0, "y": 250}, {"name": "sink", "x": 250, "y": 500}]}\n```	False	claude-v1.3	None	None	None	0	1
You are in the middle of a study room. There is a chair on the west side. There is a desk on the east side. There is a lamp on the south side. We define the following directions. The north direction is (0, -1). The south direction is (0, 1). The east direction is (-1, 0). The west direction is (1, 0). What's the layout of the room in the following format? You can estimate the size of the objects.\n```json\n{"name": "??", "width": 500, "height": 500, "directions": {"north": "??", "south": "??", "east": "??", "west": "??"}, "objects": [{"name": "??", "x": "??", "y": "??"}]}\n```	Here is the layout of the room in the requested format:\n```json\n{"name": "study room", "width": 500, "height": 500, "directions": {"north": (0, -1), "south": (0, 1), "east": (-1, 0), "west": (1, 0)}, "objects": [{"name": "chair", "x": 250, "y": 0}, {"name": "desk", "x": 0, "y": 250}, {"name": "lamp", "x": 250, "y": 500}]}\n```	False	claude-v1.3	None	None	None	0	1
You are in the middle of a study room. There is a computer on the south side. There is a lamp on the east side. There is a mirror on the north side. We define the following directions. The north direction is (0, -1). The south direction is (0, 1). The east direction is (-1, 0). The west direction is (1, 0). What's the layout of the room in the following format? You can estimate the size of the objects.\n```json\n{"name": "??", "width": 500, "height": 500, "directions": {"north": "??", "south": "??", "east": "??", "west": "??"}, "objects": [{"name": "??", "x": "??", "y": "??"}]}\n```	Here is the layout of the room in the requested format:\n```json\n{"name": "study room", "width": 500, "height": 500, "directions": {"north": (0, -1), "south": (0, 1), "east": (-1, 0), "west": (1, 0)}, "objects": [{"name": "computer", "x": 250, "y": 250}, {"name": "lamp", "x": 0, "y": 250}, {"name": "mirror", "x": 250, "y": 0}]}\n```	False	claude-v1.3	None	None	None	0	1
You are in the middle of a living room. There is a mirror on the north side. There is a sofa on the east side. There is a TV on the south side. We define the following directions. The north direction is (0, -1). The south direction is (0, 1). The east direction is (-1, 0). The west direction is (1, 0). What's the layout of the room in the following format? You can estimate the size of the objects.\n```json\n{"name": "??", "width": 500, "height": 500, "directions": {"north": "??", "south": "??", "east": "??", "west": "??"}, "objects": [{"name": "??", "x": "??", "y": "??"}]}\n```	Here is the layout of the room in the requested format:\n```json\n{"name": "living room", "width": 500, "height": 500, "directions": {"north": (0, -1), "south": (0, 1), "east": (-1, 0), "west": (1, 0)}, "objects": [{"name": "mirror", "x": 0, "y": -250}, {"name": "sofa", "x": -250, "y": 0}, {"name": "TV", "x": 0, "y": 250}]}\n```	False	claude-v1.3	None	None	None	0	1
You are in the middle of a bathroom. There is a toilet on the east side. There is a bathtub on the west side. There is a mirror on the south side. We define the following directions. The north direction is (0, -1). The south direction is (0, 1). The east direction is (-1, 0). The west direction is (1, 0). What's the layout of the room in the following format? You can estimate the size of the objects.\n```json\n{"name": "??", "width": 500, "height": 500, "directions": {"north": "??", "south": "??", "east": "??", "west": "??"}, "objects": [{"name": "??", "x": "??", "y": "??"}]}\n```	Here is the layout of the room in the requested format:\n```json\n{"name": "Bathroom", "width": 500, "height": 500, "directions": {"north": (0, -1), "south": (0, 1), "east": (-1, 0), "west": (1, 0)}, "objects": [{"name": "Toilet", "x": 100, "y": 200}, {"name": "Bathtub", "x": 300, "y": 200}, {"name": "Mirror", "x": 250, "y": 400}]}\n```	False	claude-v1.3	None	None	None	0	1
You are in the middle of a dining room. There is a mirror on the east side. There is a chair on the south side. There is a sideboard on the west side. We define the following directions. The north direction is (0, -1). The south direction is (0, 1). The east direction is (-1, 0). The west direction is (1, 0). What's the layout of the room in the following format? You can estimate the size of the objects.\n```json\n{"name": "??", "width": 500, "height": 500, "directions": {"north": "??", "south": "??", "east": "??", "west": "??"}, "objects": [{"name": "??", "x": "??", "y": "??"}]}\n```	Here is the layout of the room in the requested format:\n```json\n{"name": "dining room", "width": 500, "height": 500, "directions": {"north": (0, -1), "south": (0, 1), "east": (-1, 0), "west": (1, 0)}, "objects": [{"name": "mirror", "x": 200, "y": 0}, {"name": "chair", "x": 0, "y": 200}, {"name": "sideboard", "x": 400, "y": 0}]}\n```	False	claude-v1.3	None	None	None	0	1
You are in the middle of a laundry room. There is a sink on the south side. There is a washing machine on the east side. There is a dryer on the west side. We define the following directions. The north direction is (0, -1). The south direction is (0, 1). The east direction is (-1, 0). The west direction is (1, 0). What's the layout of the room in the following format? You can estimate the size of the objects.\n```json\n{"name": "??", "width": 500, "height": 500, "directions": {"north": "??", "south": "??", "east": "??", "west": "??"}, "objects": [{"name": "??", "x": "??", "y": "??"}]}\n```	Here is the layout of the laundry room in the requested format:\n```json\n{"name": "laundry room", "width": 500, "height": 500, "directions": {"north": (0, -1), "south": (0, 1), "east": (-1, 0), "west": (1, 0)}, "objects": [{"name": "sink", "x": 250, "y": 450}, {"name": "washing machine", "x": 50, "y": 250}, {"name": "dryer", "x": 450, "y": 250}]}\n```	False	claude-v1.3	None	None	None	0	1
You are in the middle of a bathroom. There is a toilet on the west side. There is a mirror on the south side. There is a shower on the east side. We define the following directions. The north direction is (0, -1). The south direction is (0, 1). The east direction is (-1, 0). The west direction is (1, 0). What's the layout of the room in the following format? You can estimate the size of the objects.\n```json\n{"name": "??", "width": 500, "height": 500, "directions": {"north": "??", "south": "??", "east": "??", "west": "??"}, "objects": [{"name": "??", "x": "??", "y": "??"}]}\n```	Here is the layout of the room in the requested format:\n```json\n{"name": "bathroom", "width": 500, "height": 500, "directions": {"north": (0, -1), "south": (0, 1), "east": (-1, 0), "west": (1, 0)}, "objects": [{"name": "toilet", "x": 250, "y": 0}, {"name": "mirror", "x": 0, "y": 250}, {"name": "shower", "x": 0, "y": 0}]}\n```	False	claude-v1.3	None	None	None	0	1
You are in the middle of a bedroom. There is a TV on the south side. There is a mirror on the west side. There is a bed on the north side. We define the following directions. The north direction is (0, -1). The south direction is (0, 1). The east direction is (-1, 0). The west direction is (1, 0). What's the layout of the room in the following format? You can estimate the size of the objects.\n```json\n{"name": "??", "width": 500, "height": 500, "directions": {"north": "??", "south": "??", "east": "??", "west": "??"}, "objects": [{"name": "??", "x": "??", "y": "??"}]}\n```	Here is the layout of the room in the requested format:\n```json\n{"name": "Bedroom", "width": 500, "height": 500, "directions": {"north": (0, -1), "south": (0, 1), "east": (-1, 0), "west": (1, 0)}, "objects": [{"name": "TV", "x": 250, "y": 250}, {"name": "Mirror", "x": 0, "y": 250}, {"name": "Bed", "x": 250, "y": 0}]}\n```	False	claude-v1.3	None	None	None	0	1
You are in the middle of a kitchen. There is a microwave on the north side. There is a blender on the west side. There is a table on the south side. We define the following directions. The north direction is (0, -1). The south direction is (0, 1). The east direction is (-1, 0). The west direction is (1, 0). What's the layout of the room in the following format? You can estimate the size of the objects.\n```json\n{"name": "??", "width": 500, "height": 500, "directions": {"north": "??", "south": "??", "east": "??", "west": "??"}, "objects": [{"name": "??", "x": "??", "y": "??"}]}\n```	Here is the layout of the room in the requested format:\n```json\n{"name": "kitchen", "width": 500, "height": 500, "directions": {"north": (0, -1), "south": (0, 1), "east": (-1, 0), "west": (1, 0)}, "objects": [{"name": "microwave", "x": 250, "y": 0}, {"name": "blender", "x": 0, "y": 250}, {"name": "table", "x": 250, "y": 500}]}\n```	False	claude-v1.3	None	None	None	0	1
You are in the middle of a kitchen. There is a coffee machine on the west side. There is a blender on the north side. There is a sink on the east side. We define the following directions. The north direction is (0, -1). The south direction is (0, 1). The east direction is (-1, 0). The west direction is (1, 0). What's the layout of the room in the following format? You can estimate the size of the objects.\n```json\n{"name": "??", "width": 500, "height": 500, "directions": {"north": "??", "south": "??", "east": "??", "west": "??"}, "objects": [{"name": "??", "x": "??", "y": "??"}]}\n```	Here is the layout of the room in the requested format:\n```json\n{"name": "kitchen", "width": 500, "height": 500, "directions": {"north": (0, -1), "south": (0, 1), "east": (-1, 0), "west": (1, 0)}, "objects": [{"name": "coffee machine", "x": 400, "y": 250}, {"name": "blender", "x": 250, "y": 400}, {"name": "sink", "x": 100, "y": 250}]}\n```	False	claude-v1.3	None	None	None	0	1
You are in the middle of a laundry room. There is a sink on the west side. There is a washing machine on the east side. There is a dryer on the south side. We define the following directions. The north direction is (0, -1). The south direction is (0, 1). The east direction is (-1, 0). The west direction is (1, 0). What's the layout of the room in the following format? You can estimate the size of the objects.\n```json\n{"name": "??", "width": 500, "height": 500, "directions": {"north": "??", "south": "??", "east": "??", "west": "??"}, "objects": [{"name": "??", "x": "??", "y": "??"}]}\n```	Here is the layout of the laundry room in the requested format:\n```json\n{"name": "laundry room", "width": 500, "height": 500, "directions": {"north": (0, -1), "south": (0, 1), "east": (-1, 0), "west": (1, 0)}, "objects": [{"name": "sink", "x": 100, "y": 100}, {"name": "washing machine", "x": 300, "y": 200}, {"name": "dryer", "x": 200, "y": 400}]}\n```	False	claude-v1.3	None	None	None	0	1
You are in the middle of a kitchen. There is a sink on the north side. There is a dishwasher on the east side. There is a chair on the west side. We define the following directions. The north direction is (0, -1). The south direction is (0, 1). The east direction is (-1, 0). The west direction is (1, 0). What's the layout of the room in the following format? You can estimate the size of the objects.\n```json\n{"name": "??", "width": 500, "height": 500, "directions": {"north": "??", "south": "??", "east": "??", "west": "??"}, "objects": [{"name": "??", "x": "??", "y": "??"}]}\n```	Here is the layout of the room in the requested format:\n```json\n{"name": "kitchen", "width": 500, "height": 500, "directions": {"north": (0, -1), "south": (0, 1), "east": (-1, 0), "west": (1, 0)}, "objects": [{"name": "sink", "x": 250, "y": 0}, {"name": "dishwasher", "x": 0, "y": 250}, {"name": "chair", "x": 500, "y": 250}]}\n```	False	claude-v1.3	None	None	None	0	1
You are in the middle of a bathroom. There is a sink on the east side. There is a toilet on the west side. There is a bathtub on the north side. We define the following directions. The north direction is (0, -1). The south direction is (0, 1). The east direction is (-1, 0). The west direction is (1, 0). What's the layout of the room in the following format? You can estimate the size of the objects.\n```json\n{"name": "??", "width": 500, "height": 500, "directions": {"north": "??", "south": "??", "east": "??", "west": "??"}, "objects": [{"name": "??", "x": "??", "y": "??"}]}\n```	Here is the layout of the room in the requested format:\n```json\n{"name": "bathroom", "width": 500, "height": 500, "directions": {"north": (0, -1), "south": (0, 1), "east": (-1, 0), "west": (1, 0)}, "objects": [{"name": "sink", "x": 100, "y": 200}, {"name": "toilet", "x": 300, "y": 200}, {"name": "bathtub", "x": 200, "y": 100}]}\n```	False	claude-v1.3	None	None	None	0	1
You are in the middle of a bedroom. There is a computer on the north side. There is a TV on the south side. There is a wardrobe on the east side. We define the following directions. The north direction is (0, -1). The south direction is (0, 1). The east direction is (-1, 0). The west direction is (1, 0). What's the layout of the room in the following format? You can estimate the size of the objects.\n```json\n{"name": "??", "width": 500, "height": 500, "directions": {"north": "??", "south": "??", "east": "??", "west": "??"}, "objects": [{"name": "??", "x": "??", "y": "??"}]}\n```	Here is the layout of the room in the requested format:\n```json\n{"name": "Bedroom", "width": 500, "height": 500, "directions": {"north": (0, -1), "south": (0, 1), "east": (-1, 0), "west": (1, 0)}, "objects": [{"name": "Computer", "x": 0, "y": 0}, {"name": "TV", "x": 0, "y": 400}, {"name": "Wardrobe", "x": -400, "y": 0}]}\n```	False	claude-v1.3	None	None	None	0	1
You are in the middle of a laundry room. There is a washing machine on the east side. There is a dryer on the north side. There is a sink on the west side. We define the following directions. The north direction is (0, -1). The south direction is (0, 1). The east direction is (-1, 0). The west direction is (1, 0). What's the layout of the room in the following format? You can estimate the size of the objects.\n```json\n{"name": "??", "width": 500, "height": 500, "directions": {"north": "??", "south": "??", "east": "??", "west": "??"}, "objects": [{"name": "??", "x": "??", "y": "??"}]}\n```	Here is the layout of the laundry room in the requested format:\n```json\n{"name": "laundry room", "width": 500, "height": 500, "directions": {"north": (0, -1), "south": (0, 1), "east": (-1, 0), "west": (1, 0)}, "objects": [{"name": "washing machine", "x": 100, "y": 200}, {"name": "dryer", "x": 200, "y": 100}, {"name": "sink", "x": 300, "y": 200}]}\n```	False	claude-v1.3	None	None	None	0	1
You are in the middle of a kitchen. There is a sink on the south side. There is a chair on the east side. There is a table on the west side. We define the following directions. The north direction is (0, -1). The south direction is (0, 1). The east direction is (-1, 0). The west direction is (1, 0). What's the layout of the room in the following format? You can estimate the size of the objects.\n```json\n{"name": "??", "width": 500, "height": 500, "directions": {"north": "??", "south": "??", "east": "??", "west": "??"}, "objects": [{"name": "??", "x": "??", "y": "??"}]}\n```	Here is the layout of the room in the requested format:\n```json\n{"name": "kitchen", "width": 500, "height": 500, "directions": {"north": (0, -1), "south": (0, 1), "east": (-1, 0), "west": (1, 0)}, "objects": [{"name": "sink", "x": 250, "y": 450}, {"name": "chair", "x": 450, "y": 250}, {"name": "table", "x": 50, "y": 250}]}\n```	False	claude-v1.3	None	None	None	0	1
You are in the middle of a dining room. There is a sideboard on the north side. There is a mirror on the east side. There is a lamp on the south side. We define the following directions. The north direction is (0, -1). The south direction is (0, 1). The east direction is (-1, 0). The west direction is (1, 0). What's the layout of the room in the following format? You can estimate the size of the objects.\n```json\n{"name": "??", "width": 500, "height": 500, "directions": {"north": "??", "south": "??", "east": "??", "west": "??"}, "objects": [{"name": "??", "x": "??", "y": "??"}]}\n```	Here is the layout of the room in the requested format:\n```json\n{"name": "dining room", "width": 500, "height": 500, "directions": {"north": (0, -1), "south": (0, 1), "east": (-1, 0), "west": (1, 0)}, "objects": [{"name": "sideboard", "x": 0, "y": -250}, {"name": "mirror", "x": -250, "y": 0}, {"name": "lamp", "x": 0, "y": 250}]}\n```	False	claude-v1.3	None	None	None	0	1
You are in the middle of a study room. There is a mirror on the east side. There is a lamp on the west side. There is a bookcase on the north side. We define the following directions. The north direction is (0, -1). The south direction is (0, 1). The east direction is (-1, 0). The west direction is (1, 0). What's the layout of the room in the following format? You can estimate the size of the objects.\n```json\n{"name": "??", "width": 500, "height": 500, "directions": {"north": "??", "south": "??", "east": "??", "west": "??"}, "objects": [{"name": "??", "x": "??", "y": "??"}]}\n```	Here is the layout of the room in the requested format:\n```json\n{"name": "study room", "width": 500, "height": 500, "directions": {"north": (0, -1), "south": (0, 1), "east": (-1, 0), "west": (1, 0)}, "objects": [{"name": "mirror", "x": 0, "y": 250}, {"name": "lamp", "x": 500, "y": 250}, {"name": "bookcase", "x": 250, "y": 0}]}\n```	False	claude-v1.3	None	None	None	0	1
You are in the middle of a bathroom. There is a bathtub on the south side. There is a shower on the north side. There is a sink on the west side. We define the following directions. The north direction is (0, -1). The south direction is (0, 1). The east direction is (-1, 0). The west direction is (1, 0). What's the layout of the room in the following format? You can estimate the size of the objects.\n```json\n{"name": "??", "width": 500, "height": 500, "directions": {"north": "??", "south": "??", "east": "??", "west": "??"}, "objects": [{"name": "??", "x": "??", "y": "??"}]}\n```	Here is the layout of the room in the requested format:\n```json\n{"name": "Bathroom", "width": 500, "height": 500, "directions": {"north": (0, -1), "south": (0, 1), "east": (-1, 0), "west": (1, 0)}, "objects": [{"name": "Bathtub", "x": 250, "y": 250}, {"name": "Shower", "x": 250, "y": 0}, {"name": "Sink", "x": 0, "y": 250}]}\n```	False	claude-v1.3	None	None	None	0	1
You are in the middle of a kitchen. There is a kettle on the east side. There is a chair on the west side. There is a fridge on the north side. We define the following directions. The north direction is (0, -1). The south direction is (0, 1). The east direction is (-1, 0). The west direction is (1, 0). What's the layout of the room in the following format? You can estimate the size of the objects.\n```json\n{"name": "??", "width": 500, "height": 500, "directions": {"north": "??", "south": "??", "east": "??", "west": "??"}, "objects": [{"name": "??", "x": "??", "y": "??"}]}\n```	Here is the layout of the room in the requested format:\n```json\n{"name": "kitchen", "width": 500, "height": 500, "directions": {"north": (0, -1), "south": (0, 1), "east": (-1, 0), "west": (1, 0)}, "objects": [{"name": "kettle", "x": 100, "y": 200}, {"name": "chair", "x": 300, "y": 200}, {"name": "fridge", "x": 200, "y": 0}]}\n```	False	claude-v1.3	None	None	None	0	1
You are in the middle of a bedroom. There is a chair on the east side. There is a drawer on the south side. There is a lamp on the west side. We define the following directions. The north direction is (0, -1). The south direction is (0, 1). The east direction is (-1, 0). The west direction is (1, 0). What's the layout of the room in the following format? You can estimate the size of the objects.\n```json\n{"name": "??", "width": 500, "height": 500, "directions": {"north": "??", "south": "??", "east": "??", "west": "??"}, "objects": [{"name": "??", "x": "??", "y": "??"}]}\n```	Here is the layout of the room in the requested format:\n```json\n{"name": "Bedroom", "width": 500, "height": 500, "directions": {"north": (0, -1), "south": (0, 1), "east": (-1, 0), "west": (1, 0)}, "objects": [{"name": "Chair", "x": 100, "y": 200}, {"name": "Drawer", "x": 200, "y": 300}, {"name": "Lamp", "x": 300, "y": 200}]}\n```	False	claude-v1.3	None	None	None	0	1
You are in the middle of a dining room. There is a chair on the west side. There is a sideboard on the east side. There is a table on the north side. We define the following directions. The north direction is (0, -1). The south direction is (0, 1). The east direction is (-1, 0). The west direction is (1, 0). What's the layout of the room in the following format? You can estimate the size of the objects.\n```json\n{"name": "??", "width": 500, "height": 500, "directions": {"north": "??", "south": "??", "east": "??", "west": "??"}, "objects": [{"name": "??", "x": "??", "y": "??"}]}\n```	Here is the layout of the room in the requested format:\n```json\n{"name": "dining room", "width": 500, "height": 500, "directions": {"north": (0, -1), "south": (0, 1), "east": (-1, 0), "west": (1, 0)}, "objects": [{"name": "chair", "x": 250, "y": 0}, {"name": "sideboard", "x": 0, "y": 250}, {"name": "table", "x": 0, "y": 0}]}\n```	False	claude-v1.3	None	None	None	0	1
You are in the middle of a bedroom. There is a chair on the east side. There is a drawer on the south side. There is a wardrobe on the west side. We define the following directions. The north direction is (0, -1). The south direction is (0, 1). The east direction is (-1, 0). The west direction is (1, 0). What's the layout of the room in the following format? You can estimate the size of the objects.\n```json\n{"name": "??", "width": 500, "height": 500, "directions": {"north": "??", "south": "??", "east": "??", "west": "??"}, "objects": [{"name": "??", "x": "??", "y": "??"}]}\n```	Here is the layout of the room in the requested format:\n```json\n{"name": "Bedroom", "width": 500, "height": 500, "directions": {"north": (0, -1), "south": (0, 1), "east": (-1, 0), "west": (1, 0)}, "objects": [{"name": "Chair", "x": 100, "y": 200}, {"name": "Drawer", "x": 200, "y": 300}, {"name": "Wardrobe", "x": 300, "y": 200}]}\n```	False	claude-v1.3	None	None	None	0	1
You are in the middle of a kitchen. There is a toaster on the west side. There is a fridge on the south side. There is a table on the east side. We define the following directions. The north direction is (0, -1). The south direction is (0, 1). The east direction is (-1, 0). The west direction is (1, 0). What's the layout of the room in the following format? You can estimate the size of the objects.\n```json\n{"name": "??", "width": 500, "height": 500, "directions": {"north": "??", "south": "??", "east": "??", "west": "??"}, "objects": [{"name": "??", "x": "??", "y": "??"}]}\n```	Here is the layout of the room in the requested format:\n```json\n{"name": "kitchen", "width": 500, "height": 500, "directions": {"north": (0, -1), "south": (0, 1), "east": (-1, 0), "west": (1, 0)}, "objects": [{"name": "toaster", "x": 400, "y": 250}, {"name": "fridge", "x": 250, "y": 400}, {"name": "table", "x": 100, "y": 250}]}\n```	False	claude-v1.3	None	None	None	0	1
You are in the middle of a laundry room. There is a dryer on the north side. There is a washing machine on the east side. There is a sink on the south side. We define the following directions. The north direction is (0, -1). The south direction is (0, 1). The east direction is (-1, 0). The west direction is (1, 0). What's the layout of the room in the following format? You can estimate the size of the objects.\n```json\n{"name": "??", "width": 500, "height": 500, "directions": {"north": "??", "south": "??", "east": "??", "west": "??"}, "objects": [{"name": "??", "x": "??", "y": "??"}]}\n```	Here is the layout of the laundry room in the requested format:\n```json\n{"name": "laundry room", "width": 500, "height": 500, "directions": {"north": (0, -1), "south": (0, 1), "east": (-1, 0), "west": (1, 0)}, "objects": [{"name": "dryer", "x": 250, "y": 0}, {"name": "washing machine", "x": 0, "y": 250}, {"name": "sink", "x": 250, "y": 500}]}\n```	False	claude-v1.3	None	None	None	0	1
You are in the middle of a living room. There is a sofa on the south side. There is a TV on the north side. There is a lamp on the west side. We define the following directions. The north direction is (0, -1). The south direction is (0, 1). The east direction is (-1, 0). The west direction is (1, 0). What's the layout of the room in the following format? You can estimate the size of the objects.\n```json\n{"name": "??", "width": 500, "height": 500, "directions": {"north": "??", "south": "??", "east": "??", "west": "??"}, "objects": [{"name": "??", "x": "??", "y": "??"}]}\n```	Here is the layout of the room in the requested format:\n```json\n{"name": "living room", "width": 500, "height": 500, "directions": {"north": (0, -1), "south": (0, 1), "east": (-1, 0), "west": (1, 0)}, "objects": [{"name": "sofa", "x": 250, "y": 250}, {"name": "TV", "x": 250, "y": 0}, {"name": "lamp", "x": 500, "y": 250}]}\n```	False	claude-v1.3	None	None	None	0	1
You are in the middle of a laundry room. There is a sink on the north side. There is a washing machine on the west side. There is a dryer on the east side. We define the following directions. The north direction is (0, -1). The south direction is (0, 1). The east direction is (-1, 0). The west direction is (1, 0). What's the layout of the room in the following format? You can estimate the size of the objects.\n```json\n{"name": "??", "width": 500, "height": 500, "directions": {"north": "??", "south": "??", "east": "??", "west": "??"}, "objects": [{"name": "??", "x": "??", "y": "??"}]}\n```	Here is the layout of the laundry room in the requested format:\n```json\n{"name": "laundry room", "width": 500, "height": 500, "directions": {"north": (0, -1), "south": (0, 1), "east": (-1, 0), "west": (1, 0)}, "objects": [{"name": "sink", "x": 250, "y": 0}, {"name": "washing machine", "x": 0, "y": 250}, {"name": "dryer", "x": 500, "y": 250}]}\n```	False	claude-v1.3	None	None	None	0	1
You are in the middle of a bedroom. There is a TV on the west side. There is a bed on the east side. There is a wardrobe on the south side. We define the following directions. The north direction is (0, -1). The south direction is (0, 1). The east direction is (-1, 0). The west direction is (1, 0). What's the layout of the room in the following format? You can estimate the size of the objects.\n```json\n{"name": "??", "width": 500, "height": 500, "directions": {"north": "??", "south": "??", "east": "??", "west": "??"}, "objects": [{"name": "??", "x": "??", "y": "??"}]}\n```	Here is the layout of the room in the requested format:\n```json\n{"name": "Bedroom", "width": 500, "height": 500, "directions": {"north": (0, -1), "south": (0, 1), "east": (-1, 0), "west": (1, 0)}, "objects": [{"name": "TV", "x": 400, "y": 0}, {"name": "Bed", "x": 0, "y": 0}, {"name": "Wardrobe", "x": 0, "y": 400}]}\n```	False	claude-v1.3	None	None	None	0	1
You are in the middle of a living room. There is a bookcase on the west side. There is a lamp on the north side. There is a coffee table on the south side. We define the following directions. The north direction is (0, -1). The south direction is (0, 1). The east direction is (-1, 0). The west direction is (1, 0). What's the layout of the room in the following format? You can estimate the size of the objects.\n```json\n{"name": "??", "width": 500, "height": 500, "directions": {"north": "??", "south": "??", "east": "??", "west": "??"}, "objects": [{"name": "??", "x": "??", "y": "??"}]}\n```	Here is the layout of the room in the requested format:\n```json\n{"name": "living room", "width": 500, "height": 500, "directions": {"north": (0, -1), "south": (0, 1), "east": (-1, 0), "west": (1, 0)}, "objects": [{"name": "bookcase", "x": 400, "y": 0}, {"name": "lamp", "x": 0, "y": -400}, {"name": "coffee table", "x": 0, "y": 400}]}\n```	False	claude-v1.3	None	None	None	0	1
You are in the middle of a bathroom. There is a shower on the south side. There is a toilet on the west side. There is a bathtub on the north side. We define the following directions. The north direction is (0, -1). The south direction is (0, 1). The east direction is (-1, 0). The west direction is (1, 0). What's the layout of the room in the following format? You can estimate the size of the objects.\n```json\n{"name": "??", "width": 500, "height": 500, "directions": {"north": "??", "south": "??", "east": "??", "west": "??"}, "objects": [{"name": "??", "x": "??", "y": "??"}]}\n```	Here is the layout of the room in the requested format:\n```json\n{"name": "bathroom", "width": 500, "height": 500, "directions": {"north": (0, -1), "south": (0, 1), "east": (-1, 0), "west": (1, 0)}, "objects": [{"name": "shower", "x": 250, "y": 250}, {"name": "toilet", "x": 0, "y": 250}, {"name": "bathtub", "x": 250, "y": 0}]}\n```	False	claude-v1.3	None	None	None	0	1
You are in the middle of a bedroom. There is a bed on the south side. There is a lamp on the north side. There is a computer on the west side. We define the following directions. The north direction is (0, -1). The south direction is (0, 1). The east direction is (-1, 0). The west direction is (1, 0). What's the layout of the room in the following format? You can estimate the size of the objects.\n```json\n{"name": "??", "width": 500, "height": 500, "directions": {"north": "??", "south": "??", "east": "??", "west": "??"}, "objects": [{"name": "??", "x": "??", "y": "??"}]}\n```	Here is the layout of the room in the requested format:\n```json\n{"name": "Bedroom", "width": 500, "height": 500, "directions": {"north": (0, -1), "south": (0, 1), "east": (-1, 0), "west": (1, 0)}, "objects": [{"name": "Bed", "x": 250, "y": 400}, {"name": "Lamp", "x": 250, "y": 100}, {"name": "Computer", "x": 400, "y": 250}]}\n```	False	claude-v1.3	None	None	None	0	1
You are in the middle of a living room. There is a TV on the south side. There is a coffee table on the east side. There is a sofa on the north side. We define the following directions. The north direction is (0, -1). The south direction is (0, 1). The east direction is (-1, 0). The west direction is (1, 0). What's the layout of the room in the following format? You can estimate the size of the objects.\n```json\n{"name": "??", "width": 500, "height": 500, "directions": {"north": "??", "south": "??", "east": "??", "west": "??"}, "objects": [{"name": "??", "x": "??", "y": "??"}]}\n```	Here is the layout of the room in the requested format:\n```json\n{"name": "living room", "width": 500, "height": 500, "directions": {"north": (0, -1), "south": (0, 1), "east": (-1, 0), "west": (1, 0)}, "objects": [{"name": "TV", "x": 250, "y": 250}, {"name": "coffee table", "x": 150, "y": 250}, {"name": "sofa", "x": 250, "y": 50}]}\n```	False	claude-v1.3	None	None	None	0	1
You are in the middle of a bedroom. There is a desk on the east side. There is a computer on the west side. There is a TV on the north side. We define the following directions. The north direction is (0, -1). The south direction is (0, 1). The east direction is (-1, 0). The west direction is (1, 0). What's the layout of the room in the following format? You can estimate the size of the objects.\n```json\n{"name": "??", "width": 500, "height": 500, "directions": {"north": "??", "south": "??", "east": "??", "west": "??"}, "objects": [{"name": "??", "x": "??", "y": "??"}]}\n```	Here is the layout of the room in the requested format:\n```json\n{"name": "bedroom", "width": 500, "height": 500, "directions": {"north": (0, -1), "south": (0, 1), "east": (-1, 0), "west": (1, 0)}, "objects": [{"name": "desk", "x": 100, "y": 200}, {"name": "computer", "x": 300, "y": 200}, {"name": "TV", "x": 200, "y": 100}]}\n```	False	claude-v1.3	None	None	None	0	1
You are in the middle of a bedroom. There is a mirror on the west side. There is a computer on the east side. There is a drawer on the south side. We define the following directions. The north direction is (0, -1). The south direction is (0, 1). The east direction is (-1, 0). The west direction is (1, 0). What's the layout of the room in the following format? You can estimate the size of the objects.\n```json\n{"name": "??", "width": 500, "height": 500, "directions": {"north": "??", "south": "??", "east": "??", "west": "??"}, "objects": [{"name": "??", "x": "??", "y": "??"}]}\n```	Here is the layout of the room in the requested format:\n```json\n{"name": "Bedroom", "width": 500, "height": 500, "directions": {"north": (0, -1), "south": (0, 1), "east": (-1, 0), "west": (1, 0)}, "objects": [{"name": "Mirror", "x": 250, "y": 0}, {"name": "Computer", "x": 0, "y": 250}, {"name": "Drawer", "x": 250, "y": 500}]}\n```	False	claude-v1.3	None	None	None	0	1
You are in the middle of a dining room. There is a lamp on the west side. There is a sideboard on the east side. There is a chair on the north side. We define the following directions. The north direction is (0, -1). The south direction is (0, 1). The east direction is (-1, 0). The west direction is (1, 0). What's the layout of the room in the following format? You can estimate the size of the objects.\n```json\n{"name": "??", "width": 500, "height": 500, "directions": {"north": "??", "south": "??", "east": "??", "west": "??"}, "objects": [{"name": "??", "x": "??", "y": "??"}]}\n```	Here is the layout of the room in the requested format:\n```json\n{"name": "dining room", "width": 500, "height": 500, "directions": {"north": (0, -1), "south": (0, 1), "east": (-1, 0), "west": (1, 0)}, "objects": [{"name": "lamp", "x": 400, "y": 250}, {"name": "sideboard", "x": 50, "y": 250}, {"name": "chair", "x": 250, "y": 50}]}\n```	False	claude-v1.3	None	None	None	0	1
You are in the middle of a dining room. There is a mirror on the east side. There is a chair on the west side. There is a table on the south side. We define the following directions. The north direction is (0, -1). The south direction is (0, 1). The east direction is (-1, 0). The west direction is (1, 0). What's the layout of the room in the following format? You can estimate the size of the objects.\n```json\n{"name": "??", "width": 500, "height": 500, "directions": {"north": "??", "south": "??", "east": "??", "west": "??"}, "objects": [{"name": "??", "x": "??", "y": "??"}]}\n```	Here is the layout of the room in the requested format:\n```json\n{"name": "dining room", "width": 500, "height": 500, "directions": {"north": (0, -1), "south": (0, 1), "east": (-1, 0), "west": (1, 0)}, "objects": [{"name": "mirror", "x": 0, "y": 250}, {"name": "chair", "x": 250, "y": 0}, {"name": "table", "x": 0, "y": 0}]}\n```	False	claude-v1.3	None	None	None	0	1
You are in the middle of a laundry room. There is a dryer on the east side. There is a washing machine on the west side. There is a sink on the north side. We define the following directions. The north direction is (0, -1). The south direction is (0, 1). The east direction is (-1, 0). The west direction is (1, 0). What's the layout of the room in the following format? You can estimate the size of the objects.\n```json\n{"name": "??", "width": 500, "height": 500, "directions": {"north": "??", "south": "??", "east": "??", "west": "??"}, "objects": [{"name": "??", "x": "??", "y": "??"}]}\n```	Here is the layout of the laundry room in the requested format:\n```json\n{"name": "laundry room", "width": 500, "height": 500, "directions": {"north": (0, -1), "south": (0, 1), "east": (-1, 0), "west": (1, 0)}, "objects": [{"name": "dryer", "x": 200, "y": 200}, {"name": "washing machine", "x": 300, "y": 200}, {"name": "sink", "x": 100, "y": 100}]} \n```	False	claude-v1.3	None	None	None	0	1
You are in the middle of a laundry room. There is a dryer on the north side. There is a sink on the west side. There is a washing machine on the east side. We define the following directions. The north direction is (0, -1). The south direction is (0, 1). The east direction is (-1, 0). The west direction is (1, 0). What's the layout of the room in the following format? You can estimate the size of the objects.\n```json\n{"name": "??", "width": 500, "height": 500, "directions": {"north": "??", "south": "??", "east": "??", "west": "??"}, "objects": [{"name": "??", "x": "??", "y": "??"}]}\n```	Here is the layout of the laundry room in the requested format:\n```json\n{"name": "laundry room", "width": 500, "height": 500, "directions": {"north": (0, -1), "south": (0, 1), "east": (-1, 0), "west": (1, 0)}, "objects": [{"name": "dryer", "x": 250, "y": 0}, {"name": "sink", "x": 0, "y": 250}, {"name": "washing machine", "x": 500, "y": 250}]}\n```	False	claude-v1.3	None	None	None	0	1
You are in the middle of a bedroom. There is a desk on the east side. There is a drawer on the north side. There is a bed on the south side. We define the following directions. The north direction is (0, -1). The south direction is (0, 1). The east direction is (-1, 0). The west direction is (1, 0). What's the layout of the room in the following format? You can estimate the size of the objects.\n```json\n{"name": "??", "width": 500, "height": 500, "directions": {"north": "??", "south": "??", "east": "??", "west": "??"}, "objects": [{"name": "??", "x": "??", "y": "??"}]}\n```	Here is the layout of the room in the requested format:\n```json\n{"name": "Bedroom", "width": 500, "height": 500, "directions": {"north": (0, -1), "south": (0, 1), "east": (-1, 0), "west": (1, 0)}, "objects": [{"name": "Desk", "x": 200, "y": 400}, {"name": "Drawer", "x": 400, "y": 100}, {"name": "Bed", "x": 250, "y": 250}]}\n```	False	claude-v1.3	None	None	None	0	1
You are in the middle of a kitchen. There is a microwave on the east side. There is a chair on the west side. There is a blender on the south side. We define the following directions. The north direction is (0, -1). The south direction is (0, 1). The east direction is (-1, 0). The west direction is (1, 0). What's the layout of the room in the following format? You can estimate the size of the objects.\n```json\n{"name": "??", "width": 500, "height": 500, "directions": {"north": "??", "south": "??", "east": "??", "west": "??"}, "objects": [{"name": "??", "x": "??", "y": "??"}]}\n```	Here is the layout of the room in the requested format:\n```json\n{"name": "kitchen", "width": 500, "height": 500, "directions": {"north": (0, -1), "south": (0, 1), "east": (-1, 0), "west": (1, 0)}, "objects": [{"name": "microwave", "x": 200, "y": 200}, {"name": "chair", "x": 300, "y": 300}, {"name": "blender", "x": 400, "y": 100}]}\n```	False	claude-v1.3	None	None	None	0	1
You are in the middle of a dining room. There is a mirror on the north side. There is a table on the east side. There is a sideboard on the west side. We define the following directions. The north direction is (0, -1). The south direction is (0, 1). The east direction is (-1, 0). The west direction is (1, 0). What's the layout of the room in the following format? You can estimate the size of the objects.\n```json\n{"name": "??", "width": 500, "height": 500, "directions": {"north": "??", "south": "??", "east": "??", "west": "??"}, "objects": [{"name": "??", "x": "??", "y": "??"}]}\n```	Here is the layout of the room in the requested format:\n```json\n{"name": "dining room", "width": 1000, "height": 1000, "directions": {"north": (0, -1), "south": (0, 1), "east": (-1, 0), "west": (1, 0)}, "objects": [{"name": "mirror", "x": 0, "y": 0}, {"name": "table", "x": -500, "y": 0}, {"name": "sideboard", "x": 500, "y": 0}]}\n```	False	claude-v1.3	None	None	None	0	1
You are in the middle of a study room. There is a lamp on the west side. There is a chair on the south side. There is a computer on the east side. We define the following directions. The north direction is (0, -1). The south direction is (0, 1). The east direction is (-1, 0). The west direction is (1, 0). What's the layout of the room in the following format? You can estimate the size of the objects.\n```json\n{"name": "??", "width": 500, "height": 500, "directions": {"north": "??", "south": "??", "east": "??", "west": "??"}, "objects": [{"name": "??", "x": "??", "y": "??"}]}\n```	Here is the layout of the room in the requested format:\n```json\n{"name": "study room", "width": 500, "height": 500, "directions": {"north": (0, -1), "south": (0, 1), "east": (-1, 0), "west": (1, 0)}, "objects": [{"name": "lamp", "x": 400, "y": 0}, {"name": "chair", "x": 0, "y": 400}, {"name": "computer", "x": 0, "y": 0}]}\n```	False	claude-v1.3	None	None	None	0	1
You are in the middle of a dining room. There is a mirror on the north side. There is a chair on the east side. There is a table on the west side. We define the following directions. The north direction is (0, -1). The south direction is (0, 1). The east direction is (-1, 0). The west direction is (1, 0). What's the layout of the room in the following format? You can estimate the size of the objects.\n```json\n{"name": "??", "width": 500, "height": 500, "directions": {"north": "??", "south": "??", "east": "??", "west": "??"}, "objects": [{"name": "??", "x": "??", "y": "??"}]}\n```	Here is the layout of the room in the requested format:\n```json\n{"name": "dining room", "width": 500, "height": 500, "directions": {"north": (0, -1), "south": (0, 1), "east": (-1, 0), "west": (1, 0)}, "objects": [{"name": "mirror", "x": 0, "y": -250}, {"name": "chair", "x": -250, "y": 0}, {"name": "table", "x": 250, "y": 0}]}\n```	False	claude-v1.3	None	None	None	0	1
You are in the middle of a kitchen. There is a table on the north side. There is a coffee machine on the south side. There is a kettle on the east side. We define the following directions. The north direction is (0, -1). The south direction is (0, 1). The east direction is (-1, 0). The west direction is (1, 0). What's the layout of the room in the following format? You can estimate the size of the objects.\n```json\n{"name": "??", "width": 500, "height": 500, "directions": {"north": "??", "south": "??", "east": "??", "west": "??"}, "objects": [{"name": "??", "x": "??", "y": "??"}]}\n```	Here is the layout of the room in the requested format:\n```json\n{"name": "kitchen", "width": 500, "height": 500, "directions": {"north": (0, -1), "south": (0, 1), "east": (-1, 0), "west": (1, 0)}, "objects": [{"name": "table", "x": 250, "y": 0}, {"name": "coffee machine", "x": 250, "y": 500}, {"name": "kettle", "x": 0, "y": 250}]}\n```	False	claude-v1.3	None	None	None	0	1
You are in the middle of a laundry room. There is a dryer on the west side. There is a sink on the north side. There is a washing machine on the east side. We define the following directions. The north direction is (0, -1). The south direction is (0, 1). The east direction is (-1, 0). The west direction is (1, 0). What's the layout of the room in the following format? You can estimate the size of the objects.\n```json\n{"name": "??", "width": 500, "height": 500, "directions": {"north": "??", "south": "??", "east": "??", "west": "??"}, "objects": [{"name": "??", "x": "??", "y": "??"}]}\n```	Here is the layout of the laundry room in the requested format:\n```json\n{"name": "laundry room", "width": 500, "height": 500, "directions": {"north": (0, -1), "south": (0, 1), "east": (-1, 0), "west": (1, 0)}, "objects": [{"name": "dryer", "x": 250, "y": 0}, {"name": "sink", "x": 0, "y": -250}, {"name": "washing machine", "x": -250, "y": 0}]}\n```	False	claude-v1.3	None	None	None	0	1
You are in the middle of a study room. There is a chair on the east side. There is a mirror on the north side. There is a computer on the west side. We define the following directions. The north direction is (0, -1). The south direction is (0, 1). The east direction is (-1, 0). The west direction is (1, 0). What's the layout of the room in the following format? You can estimate the size of the objects.\n```json\n{"name": "??", "width": 500, "height": 500, "directions": {"north": "??", "south": "??", "east": "??", "west": "??"}, "objects": [{"name": "??", "x": "??", "y": "??"}]}\n```	Here is the layout of the room in the requested format:\n```json\n{"name": "study room", "width": 500, "height": 500, "directions": {"north": (0, -1), "south": (0, 1), "east": (-1, 0), "west": (1, 0)}, "objects": [{"name": "chair", "x": 100, "y": 400}, {"name": "mirror", "x": 250, "y": 0}, {"name": "computer", "x": 400, "y": 250}]}\n```	False	claude-v1.3	None	None	None	0	1
You are in the middle of a living room. There is a bookcase on the north side. There is a coffee table on the east side. There is a mirror on the west side. We define the following directions. The north direction is (0, -1). The south direction is (0, 1). The east direction is (-1, 0). The west direction is (1, 0). What's the layout of the room in the following format? You can estimate the size of the objects.\n```json\n{"name": "??", "width": 500, "height": 500, "directions": {"north": "??", "south": "??", "east": "??", "west": "??"}, "objects": [{"name": "??", "x": "??", "y": "??"}]}\n```	Here is the layout of the room in the requested format:\n```json\n{"name": "living room", "width": 500, "height": 500, "directions": {"north": (0, -1), "south": (0, 1), "east": (-1, 0), "west": (1, 0)}, "objects": [{"name": "bookcase", "x": 0, "y": -250}, {"name": "coffee table", "x": -250, "y": 0}, {"name": "mirror", "x": 250, "y": 0}]}\n```	False	claude-v1.3	None	None	None	0	1
You are in the middle of a laundry room. There is a dryer on the west side. There is a sink on the south side. There is a washing machine on the east side. We define the following directions. The north direction is (0, -1). The south direction is (0, 1). The east direction is (-1, 0). The west direction is (1, 0). What's the layout of the room in the following format? You can estimate the size of the objects.\n```json\n{"name": "??", "width": 500, "height": 500, "directions": {"north": "??", "south": "??", "east": "??", "west": "??"}, "objects": [{"name": "??", "x": "??", "y": "??"}]}\n```	Here is the layout of the laundry room in the requested format:\n```json\n{"name": "laundry room", "width": 500, "height": 500, "directions": {"north": (0, -1), "south": (0, 1), "east": (-1, 0), "west": (1, 0)}, "objects": [{"name": "dryer", "x": 250, "y": 0}, {"name": "sink", "x": 0, "y": 250}, {"name": "washing machine", "x": 500, "y": 250}]}\n```	False	claude-v1.3	None	None	None	0	1
You are in the middle of a bedroom. There is a wardrobe on the north side. There is a computer on the west side. There is a drawer on the east side. We define the following directions. The north direction is (0, -1). The south direction is (0, 1). The east direction is (-1, 0). The west direction is (1, 0). What's the layout of the room in the following format? You can estimate the size of the objects.\n```json\n{"name": "??", "width": 500, "height": 500, "directions": {"north": "??", "south": "??", "east": "??", "west": "??"}, "objects": [{"name": "??", "x": "??", "y": "??"}]}\n```	Here is the layout of the room in the requested format:\n```json\n{"name": "Bedroom", "width": 500, "height": 500, "directions": {"north": (0, -1), "south": (0, 1), "east": (-1, 0), "west": (1, 0)}, "objects": [{"name": "Wardrobe", "x": 0, "y": -250}, {"name": "Computer", "x": 250, "y": 0}, {"name": "Drawer", "x": -250, "y": 0}]}\n```	False	claude-v1.3	None	None	None	0	1
You are in the middle of a study room. There is a computer on the south side. There is a desk on the west side. There is a mirror on the east side. We define the following directions. The north direction is (0, -1). The south direction is (0, 1). The east direction is (-1, 0). The west direction is (1, 0). What's the layout of the room in the following format? You can estimate the size of the objects.\n```json\n{"name": "??", "width": 500, "height": 500, "directions": {"north": "??", "south": "??", "east": "??", "west": "??"}, "objects": [{"name": "??", "x": "??", "y": "??"}]}\n```	Here is the layout of the room in the requested format:\n```json\n{"name": "study room", "width": 500, "height": 500, "directions": {"north": (0, -1), "south": (0, 1), "east": (-1, 0), "west": (1, 0)}, "objects": [{"name": "computer", "x": 250, "y": 250}, {"name": "desk", "x": 0, "y": 250}, {"name": "mirror", "x": 250, "y": 0}]}\n```	False	claude-v1.3	None	None	None	0	1
You are in the middle of a bedroom. There is a bed on the north side. There is a computer on the east side. There is a bookcase on the south side. We define the following directions. The north direction is (0, -1). The south direction is (0, 1). The east direction is (-1, 0). The west direction is (1, 0). What's the layout of the room in the following format? You can estimate the size of the objects.\n```json\n{"name": "??", "width": 500, "height": 500, "directions": {"north": "??", "south": "??", "east": "??", "west": "??"}, "objects": [{"name": "??", "x": "??", "y": "??"}]}\n```	Here is the layout of the room in the requested format:\n```json\n{"name": "Bedroom", "width": 500, "height": 500, "directions": {"north": (0, -1), "south": (0, 1), "east": (-1, 0), "west": (1, 0)}, "objects": [{"name": "Bed", "x": 250, "y": 0}, {"name": "Computer", "x": 0, "y": 250}, {"name": "Bookcase", "x": 250, "y": 500}]}\n```	False	claude-v1.3	None	None	None	0	1
You are in the middle of a laundry room. There is a washing machine on the north side. There is a dryer on the east side. There is a sink on the west side. We define the following directions. The north direction is (0, -1). The south direction is (0, 1). The east direction is (-1, 0). The west direction is (1, 0). What's the layout of the room in the following format? You can estimate the size of the objects.\n```json\n{"name": "??", "width": 500, "height": 500, "directions": {"north": "??", "south": "??", "east": "??", "west": "??"}, "objects": [{"name": "??", "x": "??", "y": "??"}]}\n```	Here is the layout of the room in the requested format:\n```json\n{"name": "laundry room", "width": 500, "height": 500, "directions": {"north": (0, -1), "south": (0, 1), "east": (-1, 0), "west": (1, 0)}, "objects": [{"name": "washing machine", "x": 250, "y": 0}, {"name": "dryer", "x": 0, "y": 250}, {"name": "sink", "x": 500, "y": 250}]}\n```	False	claude-v1.3	None	None	None	0	1
You are in the middle of a bedroom. There is a TV on the south side. There is a computer on the west side. There is a bookcase on the east side. We define the following directions. The north direction is (0, -1). The south direction is (0, 1). The east direction is (-1, 0). The west direction is (1, 0). What's the layout of the room in the following format? You can estimate the size of the objects.\n```json\n{"name": "??", "width": 500, "height": 500, "directions": {"north": "??", "south": "??", "east": "??", "west": "??"}, "objects": [{"name": "??", "x": "??", "y": "??"}]}\n```	Here is the layout of the room in the requested format:\n```json\n{"name": "Bedroom", "width": 500, "height": 500, "directions": {"north": (0, -1), "south": (0, 1), "east": (-1, 0), "west": (1, 0)}, "objects": [{"name": "TV", "x": 250, "y": 400}, {"name": "Computer", "x": 400, "y": 250}, {"name": "Bookcase", "x": 100, "y": 250}]}\n```	False	claude-v1.3	None	None	None	0	1
You are in the middle of a laundry room. There is a sink on the north side. There is a washing machine on the south side. There is a dryer on the east side. We define the following directions. The north direction is (0, -1). The south direction is (0, 1). The east direction is (-1, 0). The west direction is (1, 0). What's the layout of the room in the following format? You can estimate the size of the objects.\n```json\n{"name": "??", "width": 500, "height": 500, "directions": {"north": "??", "south": "??", "east": "??", "west": "??"}, "objects": [{"name": "??", "x": "??", "y": "??"}]}\n```	Here is the layout of the laundry room in the requested format:\n```json\n{"name": "laundry room", "width": 500, "height": 500, "directions": {"north": (0, -1), "south": (0, 1), "east": (-1, 0), "west": (1, 0)}, "objects": [{"name": "sink", "x": 250, "y": 0}, {"name": "washing machine", "x": 250, "y": 500}, {"name": "dryer", "x": 0, "y": 250}]}\n```	False	claude-v1.3	None	None	None	0	1
You are in the middle of a bedroom. There is a lamp on the north side. There is a desk on the east side. There is a mirror on the south side. We define the following directions. The north direction is (0, -1). The south direction is (0, 1). The east direction is (-1, 0). The west direction is (1, 0). What's the layout of the room in the following format? You can estimate the size of the objects.\n```json\n{"name": "??", "width": 500, "height": 500, "directions": {"north": "??", "south": "??", "east": "??", "west": "??"}, "objects": [{"name": "??", "x": "??", "y": "??"}]}\n```	Here is the layout of the room in the requested format:\n```json\n{"name": "Bedroom", "width": 500, "height": 500, "directions": {"north": (0, -1), "south": (0, 1), "east": (-1, 0), "west": (1, 0)}, "objects": [{"name": "Lamp", "x": 250, "y": 0}, {"name": "Desk", "x": 0, "y": 250}, {"name": "Mirror", "x": 250, "y": 500}]}\n```	False	claude-v1.3	None	None	None	0	1
You are in the middle of a dining room. There is a sideboard on the west side. There is a table on the east side. There is a lamp on the south side. We define the following directions. The north direction is (0, -1). The south direction is (0, 1). The east direction is (-1, 0). The west direction is (1, 0). What's the layout of the room in the following format? You can estimate the size of the objects.\n```json\n{"name": "??", "width": 500, "height": 500, "directions": {"north": "??", "south": "??", "east": "??", "west": "??"}, "objects": [{"name": "??", "x": "??", "y": "??"}]}\n```	Here is the layout of the room in the requested format:\n```json\n{"name": "dining room", "width": 500, "height": 500, "directions": {"north": (0, -1), "south": (0, 1), "east": (-1, 0), "west": (1, 0)}, "objects": [{"name": "sideboard", "x": 250, "y": 0}, {"name": "table", "x": 0, "y": 250}, {"name": "lamp", "x": 250, "y": 500}]}\n```	False	claude-v1.3	None	None	None	0	1
You are in the middle of a bedroom. There is a wardrobe on the north side. There is a TV on the south side. There is a mirror on the west side. We define the following directions. The north direction is (0, -1). The south direction is (0, 1). The east direction is (-1, 0). The west direction is (1, 0). What's the layout of the room in the following format? You can estimate the size of the objects.\n```json\n{"name": "??", "width": 500, "height": 500, "directions": {"north": "??", "south": "??", "east": "??", "west": "??"}, "objects": [{"name": "??", "x": "??", "y": "??"}]}\n```	Here is the layout of the room in the requested format:\n```json\n{"name": "Bedroom", "width": 500, "height": 500, "directions": {"north": (0, -1), "south": (0, 1), "east": (-1, 0), "west": (1, 0)}, "objects": [{"name": "Wardrobe", "x": 0, "y": -250}, {"name": "TV", "x": 0, "y": 250}, {"name": "Mirror", "x": 250, "y": 0}]}\n```	False	claude-v1.3	None	None	None	0	1
You are in the middle of a study room. There is a desk on the west side. There is a lamp on the north side. There is a bookcase on the south side. We define the following directions. The north direction is (0, -1). The south direction is (0, 1). The east direction is (-1, 0). The west direction is (1, 0). What's the layout of the room in the following format? You can estimate the size of the objects.\n```json\n{"name": "??", "width": 500, "height": 500, "directions": {"north": "??", "south": "??", "east": "??", "west": "??"}, "objects": [{"name": "??", "x": "??", "y": "??"}]}\n```	Here is the layout of the room in the requested format:\n```json\n{"name": "study room", "width": 500, "height": 500, "directions": {"north": (0, -1), "south": (0, 1), "east": (-1, 0), "west": (1, 0)}, "objects": [{"name": "desk", "x": 400, "y": 0}, {"name": "lamp", "x": 0, "y": -400}, {"name": "bookcase", "x": 0, "y": 400}]}\n```	False	claude-v1.3	None	None	None	0	1
You are in the middle of a laundry room. There is a dryer on the east side. There is a sink on the north side. There is a washing machine on the west side. We define the following directions. The north direction is (0, -1). The south direction is (0, 1). The east direction is (-1, 0). The west direction is (1, 0). What's the layout of the room in the following format? You can estimate the size of the objects.\n```json\n{"name": "??", "width": 500, "height": 500, "directions": {"north": "??", "south": "??", "east": "??", "west": "??"}, "objects": [{"name": "??", "x": "??", "y": "??"}]}\n```	Here is the layout of the laundry room in the requested format:\n```json\n{"name": "laundry room", "width": 500, "height": 500, "directions": {"north": (0, -1), "south": (0, 1), "east": (-1, 0), "west": (1, 0)}, "objects": [{"name": "dryer", "x": 200, "y": 200}, {"name": "sink", "x": 250, "y": 0}, {"name": "washing machine", "x": 0, "y": 200}]}\n```	False	claude-v1.3	None	None	None	0	1
You are in the middle of a kitchen. There is a sink on the south side. There is a kettle on the north side. There is a table on the east side. We define the following directions. The north direction is (0, -1). The south direction is (0, 1). The east direction is (-1, 0). The west direction is (1, 0). What's the layout of the room in the following format? You can estimate the size of the objects.\n```json\n{"name": "??", "width": 500, "height": 500, "directions": {"north": "??", "south": "??", "east": "??", "west": "??"}, "objects": [{"name": "??", "x": "??", "y": "??"}]}\n```	Here is the layout of the room in the requested format:\n```json\n{"name": "kitchen", "width": 500, "height": 500, "directions": {"north": (0, -1), "south": (0, 1), "east": (-1, 0), "west": (1, 0)}, "objects": [{"name": "sink", "x": 250, "y": 250}, {"name": "kettle", "x": 250, "y": 0}, {"name": "table", "x": 0, "y": 250}]}\n```	False	claude-v1.3	None	None	None	0	1
You are in the middle of a laundry room. There is a dryer on the south side. There is a washing machine on the north side. There is a sink on the east side. We define the following directions. The north direction is (0, -1). The south direction is (0, 1). The east direction is (-1, 0). The west direction is (1, 0). What's the layout of the room in the following format? You can estimate the size of the objects.\n```json\n{"name": "??", "width": 500, "height": 500, "directions": {"north": "??", "south": "??", "east": "??", "west": "??"}, "objects": [{"name": "??", "x": "??", "y": "??"}]}\n```	Here is the layout of the laundry room in the requested format:\n```json\n{"name": "laundry room", "width": 500, "height": 500, "directions": {"north": (0, -1), "south": (0, 1), "east": (-1, 0), "west": (1, 0)}, "objects": [{"name": "dryer", "x": 250, "y": 400}, {"name": "washing machine", "x": 250, "y": 100}, {"name": "sink", "x": 100, "y": 250}]}\n```	False	claude-v1.3	None	None	None	0	1
You are in the middle of a study room. There is a mirror on the east side. There is a desk on the south side. There is a bookcase on the north side. We define the following directions. The north direction is (0, -1). The south direction is (0, 1). The east direction is (-1, 0). The west direction is (1, 0). What's the layout of the room in the following format? You can estimate the size of the objects.\n```json\n{"name": "??", "width": 500, "height": 500, "directions": {"north": "??", "south": "??", "east": "??", "west": "??"}, "objects": [{"name": "??", "x": "??", "y": "??"}]}\n```	Here is the layout of the room in the requested format:\n```json\n{"name": "study room", "width": 500, "height": 500, "directions": {"north": (0, -1), "south": (0, 1), "east": (-1, 0), "west": (1, 0)}, "objects": [{"name": "mirror", "x": 0, "y": 250}, {"name": "desk", "x": 250, "y": 0}, {"name": "bookcase", "x": 0, "y": 0}]}\n```	False	claude-v1.3	None	None	None	0	1
You are in the middle of a dining room. There is a chair on the west side. There is a mirror on the north side. There is a table on the south side. We define the following directions. The north direction is (0, -1). The south direction is (0, 1). The east direction is (-1, 0). The west direction is (1, 0). What's the layout of the room in the following format? You can estimate the size of the objects.\n```json\n{"name": "??", "width": 500, "height": 500, "directions": {"north": "??", "south": "??", "east": "??", "west": "??"}, "objects": [{"name": "??", "x": "??", "y": "??"}]}\n```	Here is the layout of the room in the requested format:\n```json\n{"name": "dining room", "width": 500, "height": 500, "directions": {"north": (0, -1), "south": (0, 1), "east": (-1, 0), "west": (1, 0)}, "objects": [{"name": "chair", "x": 400, "y": 0}, {"name": "mirror", "x": 0, "y": -200}, {"name": "table", "x": 250, "y": 250}]}\n```	False	claude-v1.3	None	None	None	0	1
You are in the middle of a kitchen. There is a coffee machine on the south side. There is a microwave on the west side. There is a sink on the east side. We define the following directions. The north direction is (0, -1). The south direction is (0, 1). The east direction is (-1, 0). The west direction is (1, 0). What's the layout of the room in the following format? You can estimate the size of the objects.\n```json\n{"name": "??", "width": 500, "height": 500, "directions": {"north": "??", "south": "??", "east": "??", "west": "??"}, "objects": [{"name": "??", "x": "??", "y": "??"}]}\n```	Here is the layout of the room in the requested format:\n```json\n{"name": "kitchen", "width": 500, "height": 500, "directions": {"north": (0, -1), "south": (0, 1), "east": (-1, 0), "west": (1, 0)}, "objects": [{"name": "coffee machine", "x": 250, "y": 450}, {"name": "microwave", "x": 450, "y": 250}, {"name": "sink", "x": 50, "y": 250}]}\n```	False	claude-v1.3	None	None	None	0	1
You are in the middle of a living room. There is a TV on the south side. There is a mirror on the east side. There is a lamp on the north side. We define the following directions. The north direction is (0, -1). The south direction is (0, 1). The east direction is (-1, 0). The west direction is (1, 0). What's the layout of the room in the following format? You can estimate the size of the objects.\n```json\n{"name": "??", "width": 500, "height": 500, "directions": {"north": "??", "south": "??", "east": "??", "west": "??"}, "objects": [{"name": "??", "x": "??", "y": "??"}]}\n```	Here is the layout of the room in the requested format:\n```json\n{"name": "living room", "width": 500, "height": 500, "directions": {"north": (0, -1), "south": (0, 1), "east": (-1, 0), "west": (1, 0)}, "objects": [{"name": "TV", "x": 250, "y": 250}, {"name": "mirror", "x": 0, "y": 250}, {"name": "lamp", "x": 250, "y": 0}]}\n```	False	claude-v1.3	None	None	None	0	1
You are in the middle of a bedroom. There is a lamp on the west side. There is a chair on the north side. There is a drawer on the east side. We define the following directions. The north direction is (0, -1). The south direction is (0, 1). The east direction is (-1, 0). The west direction is (1, 0). What's the layout of the room in the following format? You can estimate the size of the objects.\n```json\n{"name": "??", "width": 500, "height": 500, "directions": {"north": "??", "south": "??", "east": "??", "west": "??"}, "objects": [{"name": "??", "x": "??", "y": "??"}]}\n```	Here is the layout of the room in the requested format:\n```json\n{"name": "Bedroom", "width": 500, "height": 500, "directions": {"north": (0, -1), "south": (0, 1), "east": (-1, 0), "west": (1, 0)}, "objects": [{"name": "Lamp", "x": 400, "y": 250}, {"name": "Chair", "x": 250, "y": 0}, {"name": "Drawer", "x": 0, "y": 250}]}\n```	False	claude-v1.3	None	None	None	0	1
You are in the middle of a laundry room. There is a washing machine on the south side. There is a dryer on the north side. There is a sink on the west side. We define the following directions. The north direction is (0, -1). The south direction is (0, 1). The east direction is (-1, 0). The west direction is (1, 0). What's the layout of the room in the following format? You can estimate the size of the objects.\n```json\n{"name": "??", "width": 500, "height": 500, "directions": {"north": "??", "south": "??", "east": "??", "west": "??"}, "objects": [{"name": "??", "x": "??", "y": "??"}]}\n```	Here is the layout of the laundry room in the requested format:\n```json\n{"name": "laundry room", "width": 500, "height": 500, "directions": {"north": (0, -1), "south": (0, 1), "east": (-1, 0), "west": (1, 0)}, "objects": [{"name": "washing machine", "x": 250, "y": 250}, {"name": "dryer", "x": 250, "y": 0}, {"name": "sink", "x": 0, "y": 250}]}\n```	False	claude-v1.3	None	None	None	0	1
You are in the middle of a kitchen. There is a toaster on the north side. There is a sink on the south side. There is a microwave on the west side. We define the following directions. The north direction is (0, -1). The south direction is (0, 1). The east direction is (-1, 0). The west direction is (1, 0). What's the layout of the room in the following format? You can estimate the size of the objects.\n```json\n{"name": "??", "width": 500, "height": 500, "directions": {"north": "??", "south": "??", "east": "??", "west": "??"}, "objects": [{"name": "??", "x": "??", "y": "??"}]}\n```	Here is the layout of the room in the requested format:\n```json\n{"name": "kitchen", "width": 500, "height": 500, "directions": {"north": (0, -1), "south": (0, 1), "east": (-1, 0), "west": (1, 0)}, "objects": [{"name": "toaster", "x": 250, "y": 0}, {"name": "sink", "x": 250, "y": 500}, {"name": "microwave", "x": 0, "y": 250}]}\n```	False	claude-v1.3	None	None	None	0	1
You are in the middle of a study room. There is a desk on the east side. There is a chair on the west side. There is a lamp on the south side. We define the following directions. The north direction is (0, -1). The south direction is (0, 1). The east direction is (-1, 0). The west direction is (1, 0). What's the layout of the room in the following format? You can estimate the size of the objects.\n```json\n{"name": "??", "width": 500, "height": 500, "directions": {"north": "??", "south": "??", "east": "??", "west": "??"}, "objects": [{"name": "??", "x": "??", "y": "??"}]}\n```	Here is the layout of the room in the requested format:\n```json\n{"name": "study room", "width": 500, "height": 500, "directions": {"north": (0, -1), "south": (0, 1), "east": (-1, 0), "west": (1, 0)}, "objects": [{"name": "desk", "x": 100, "y": 200}, {"name": "chair", "x": 300, "y": 200}, {"name": "lamp", "x": 200, "y": 300}]}\n```	False	claude-v1.3	None	None	None	0	1
You are in the middle of a study room. There is a chair on the east side. There is a bookcase on the west side. There is a lamp on the south side. We define the following directions. The north direction is (0, -1). The south direction is (0, 1). The east direction is (-1, 0). The west direction is (1, 0). What's the layout of the room in the following format? You can estimate the size of the objects.\n```json\n{"name": "??", "width": 500, "height": 500, "directions": {"north": "??", "south": "??", "east": "??", "west": "??"}, "objects": [{"name": "??", "x": "??", "y": "??"}]}\n```	Here is the layout of the room in the requested format:\n```json\n{"name": "study room", "width": 500, "height": 500, "directions": {"north": (0, -1), "south": (0, 1), "east": (-1, 0), "west": (1, 0)}, "objects": [{"name": "chair", "x": 100, "y": 100}, {"name": "bookcase", "x": 400, "y": 100}, {"name": "lamp", "x": 100, "y": 400}]}\n```	False	claude-v1.3	None	None	None	0	1
You are in the middle of a bedroom. There is a desk on the north side. There is a computer on the south side. There is a bookcase on the east side. We define the following directions. The north direction is (0, -1). The south direction is (0, 1). The east direction is (-1, 0). The west direction is (1, 0). What's the layout of the room in the following format? You can estimate the size of the objects.\n```json\n{"name": "??", "width": 500, "height": 500, "directions": {"north": "??", "south": "??", "east": "??", "west": "??"}, "objects": [{"name": "??", "x": "??", "y": "??"}]}\n```	Here is the layout of the room in the requested format:\n```json\n{"name": "bedroom", "width": 500, "height": 500, "directions": {"north": (0, -1), "south": (0, 1), "east": (-1, 0), "west": (1, 0)}, "objects": [{"name": "desk", "x": 0, "y": -200}, {"name": "computer", "x": 0, "y": 200}, {"name": "bookcase", "x": -200, "y": 0}]} \n```	False	claude-v1.3	None	None	None	0	1
You are in the middle of a bedroom. There is a TV on the south side. There is a bookcase on the west side. There is a computer on the east side. We define the following directions. The north direction is (0, -1). The south direction is (0, 1). The east direction is (-1, 0). The west direction is (1, 0). What's the layout of the room in the following format? You can estimate the size of the objects.\n```json\n{"name": "??", "width": 500, "height": 500, "directions": {"north": "??", "south": "??", "east": "??", "west": "??"}, "objects": [{"name": "??", "x": "??", "y": "??"}]}\n```	Here is the layout of the room in the requested format:\n```json\n{"name": "Bedroom", "width": 500, "height": 500, "directions": {"north": (0, -1), "south": (0, 1), "east": (-1, 0), "west": (1, 0)}, "objects": [{"name": "TV", "x": 250, "y": 400}, {"name": "Bookcase", "x": 400, "y": 250}, {"name": "Computer", "x": 100, "y": 250}]}\n```	False	claude-v1.3	None	None	None	0	1
You are in the middle of a living room. There is a sofa on the east side. There is a coffee table on the north side. There is a mirror on the west side. We define the following directions. The north direction is (0, -1). The south direction is (0, 1). The east direction is (-1, 0). The west direction is (1, 0). What's the layout of the room in the following format? You can estimate the size of the objects.\n```json\n{"name": "??", "width": 500, "height": 500, "directions": {"north": "??", "south": "??", "east": "??", "west": "??"}, "objects": [{"name": "??", "x": "??", "y": "??"}]}\n```	Here is the layout of the room in the requested format:\n```json\n{"name": "living room", "width": 500, "height": 500, "directions": {"north": (0, -1), "south": (0, 1), "east": (-1, 0), "west": (1, 0)}, "objects": [{"name": "sofa", "x": 100, "y": 200}, {"name": "coffee table", "x": 250, "y": 100}, {"name": "mirror", "x": 400, "y": 200}]}\n```	False	claude-v1.3	None	None	None	0	1
You are in the middle of a laundry room. There is a sink on the south side. There is a dryer on the west side. There is a washing machine on the east side. We define the following directions. The north direction is (0, -1). The south direction is (0, 1). The east direction is (-1, 0). The west direction is (1, 0). What's the layout of the room in the following format? You can estimate the size of the objects.\n```json\n{"name": "??", "width": 500, "height": 500, "directions": {"north": "??", "south": "??", "east": "??", "west": "??"}, "objects": [{"name": "??", "x": "??", "y": "??"}]}\n```	Here is the layout of the laundry room in the requested format:\n```json\n{"name": "laundry room", "width": 500, "height": 500, "directions": {"north": (0, -1), "south": (0, 1), "east": (-1, 0), "west": (1, 0)}, "objects": [{"name": "sink", "x": 250, "y": 450}, {"name": "dryer", "x": 450, "y": 250}, {"name": "washing machine", "x": 50, "y": 250}]}\n```	False	claude-v1.3	None	None	None	0	1
